{
    "links": {
        "self": "http://www.neowsapp.com/rest/v1/neo/3555680?api_key=iIulBulltgU6a56xZRHN4H3l9WmuAYTsLGpBGhQ2"
    },
    "id": "3555680",
    "neo_reference_id": "3555680",
    "name": "(2011 BA12)",
    "designation": "2011 BA12",
    "nasa_jpl_url": "http://ssd.jpl.nasa.gov/sbdb.cgi?sstr=3555680",
    "absolute_magnitude_h": 22.5,
    "estimated_diameter": {
        "kilometers": {
            "estimated_diameter_min": 0.0840533402,
            "estimated_diameter_max": 0.1879489824
        },
        "meters": {
            "estimated_diameter_min": 84.0533402073,
            "estimated_diameter_max": 187.9489824394
        },
        "miles": {
            "estimated_diameter_min": 0.0522283081,
            "estimated_diameter_max": 0.1167860472
        },
        "feet": {
            "estimated_diameter_min": 275.7655606856,
            "estimated_diameter_max": 616.6305395464
        }
    },
    "is_potentially_hazardous_asteroid": false,
    "close_approach_data": [
        {
            "close_approach_date": "1995-09-26",
            "close_approach_date_full": "1995-Sep-26 15:47",
            "epoch_date_close_approach": 812130420000,
            "relative_velocity": {
                "kilometers_per_second": "14.4890333418",
                "kilometers_per_hour": "52160.52003048",
                "miles_per_hour": "32410.5186822724"
            },
            "miss_distance": {
                "astronomical": "0.0423402318",
                "lunar": "16.4703501702",
                "kilometers": "6334008.492586266",
                "miles": "3935770.3731958308"
            },
            "orbiting_body": "Mars"
        },
        {
            "close_approach_date": "2007-05-02",
            "close_approach_date_full": "2007-May-02 14:48",
            "epoch_date_close_approach": 1178117280000,
            "relative_velocity": {
                "kilometers_per_second": "18.8340185617",
                "kilometers_per_hour": "67802.4668220354",
                "miles_per_hour": "42129.8161206142"
            },
            "miss_distance": {
                "astronomical": "0.444864106",
                "lunar": "173.052137234",
                "kilometers": "66550722.69705422",
                "miles": "41352701.533699436"
            },
            "orbiting_body": "Earth"
        },
        {
            "close_approach_date": "2011-03-05",
            "close_approach_date_full": "2011-Mar-05 11:10",
            "epoch_date_close_approach": 1299323400000,
            "relative_velocity": {
                "kilometers_per_second": "6.8454849916",
                "kilometers_per_hour": "24643.7459697261",
                "miles_per_hour": "15312.665377689"
            },
            "miss_distance": {
                "astronomical": "0.0753249296",
                "lunar": "29.3013976144",
                "kilometers": "11268449.026059952",
                "miles": "7001889.5428612576"
            },
            "orbiting_body": "Earth"
        },
        {
            "close_approach_date": "2046-07-20",
            "close_approach_date_full": "2046-Jul-20 12:57",
            "epoch_date_close_approach": 2415704220000,
            "relative_velocity": {
                "kilometers_per_second": "16.753734799",
                "kilometers_per_hour": "60313.4452762729",
                "miles_per_hour": "37476.4293718041"
            },
            "miss_distance": {
                "astronomical": "0.0800236539",
                "lunar": "31.1292013671",
                "kilometers": "11971368.173057193",
                "miles": "7438663.2473395434"
            },
            "orbiting_body": "Mars"
        }
    ],
    "orbital_data": {
        "orbit_id": "39",
        "orbit_determination_date": "2017-04-06 08:54:50",
        "first_observation_date": "2011-01-25",
        "last_observation_date": "2011-05-04",
        "data_arc_in_days": 99,
        "observations_used": 246,
        "orbit_uncertainty": "5",
        "minimum_orbit_intersection": ".0612644",
        "jupiter_tisserand_invariant": "3.228",
        "epoch_osculation": "2459000.5",
        "eccentricity": ".574473917809191",
        "semi_major_axis": "2.480746597434363",
        "inclination": ".1320273752324437",
        "ascending_node_longitude": "242.9195121133993",
        "orbital_period": "1427.157924695603",
        "perihelion_distance": "1.055622380514424",
        "perihelion_argument": "289.3623096715201",
        "aphelion_distance": "3.905870814354302",
        "perihelion_time": "2458487.785399812905",
        "mean_anomaly": "129.3320471921301",
        "mean_motion": ".2522495890402487",
        "equinox": "J2000",
        "orbit_class": {
            "orbit_class_type": "AMO",
            "orbit_class_description": "Near-Earth asteroid orbits similar to that of 1221 Amor",
            "orbit_class_range": "1.017 AU < q (perihelion) < 1.3 AU"
        }
    },
    "is_sentry_object": false
}